start=new Date('2022-12-03T00:00:00.000Z').valueOf();
sats=[{"ARG_OF_PERICENTER":"79.4805","RA_OF_ASC_NODE":"72.7505","PERIAPSIS":"546.263","OBJECT_ID":"2020-055AE","EPHEMERIS_TYPE":"0","PERIOD":"95.593","SITE":"AFETR","INCLINATION":"53.0568","REV_AT_EPOCH":"12865","TLE_LINE2":"2 46055  53.0568  72.7505 0001399  79.4805 280.6341 15.06393919128652","MEAN_MOTION_DOT":"-0.00001124","MEAN_ELEMENT_THEORY":"SGP4","TLE_LINE1":"1 46055U 20055AE  22336.56547397 -.00001124  00000-0 -56607-4 0  9992","COUNTRY_CODE":"US","FILE":"3679349","CENTER_NAME":"EARTH","OBJECT_NAME":"STARLINK-1554","MEAN_MOTION_DDOT":"0.0000000000000","DECAY_DATE":null,"APOAPSIS":"548.201","LAUNCH_DATE":"2020-08-07","GP_ID":"219356081","EPOCH":"2022-12-02T13:34:16.951008","BSTAR":"-0.00005660700000","ELEMENT_SET_NO":"999","ECCENTRICITY":"0.00013990","OBJECT_TYPE":"PAYLOAD","MEAN_MOTION":"15.06393919","CLASSIFICATION_TYPE":"U","REF_FRAME":"TEME","SEMIMAJOR_AXIS":"6925.367","NORAD_CAT_ID":"46055","TIME_SYSTEM":"UTC","RCS_SIZE":"LARGE","MEAN_ANOMALY":"280.6341"},{"MEAN_ANOMALY":"295.3336","RCS_SIZE":"LARGE","TIME_SYSTEM":"UTC","NORAD_CAT_ID":"46056","SEMIMAJOR_AXIS":"6925.324","CLASSIFICATION_TYPE":"U","REF_FRAME":"TEME","MEAN_MOTION":"15.06408080","OBJECT_TYPE":"PAYLOAD","ELEMENT_SET_NO":"999","ECCENTRICITY":"0.00016290","BSTAR":"-0.00010797000000","EPOCH":"2022-12-02T15:40:18.265152","GP_ID":"219379683","LAUNCH_DATE":"2020-08-07","APOAPSIS":"548.317","DECAY_DATE":null,"MEAN_MOTION_DDOT":"0.0000000000000","OBJECT_NAME":"STARLINK-1561","CENTER_NAME":"EARTH","FILE":"3679625","COUNTRY_CODE":"US","TLE_LINE1":"1 46056U 20055AF  22336.65298918 -.00001890  00000-0 -10797-3 0  9994","MEAN_ELEMENT_THEORY":"SGP4","TLE_LINE2":"2 46056  53.0568  72.3709 0001629  64.7822 295.3336 15.06408080129224","MEAN_MOTION_DOT":"-0.00001890","REV_AT_EPOCH":"12922","INCLINATION":"53.0568","SITE":"AFETR","PERIOD":"95.592","EPHEMERIS_TYPE":"0","PERIAPSIS":"546.061","OBJECT_ID":"2020-055AF","RA_OF_ASC_NODE":"72.3709","ARG_OF_PERICENTER":"64.7822"},{"DECAY_DATE":null,"APOAPSIS":"548.241","LAUNCH_DATE":"2020-08-07","GP_ID":"219378431","EPOCH":"2022-12-02T19:08:39.746400","OBJECT_NAME":"STARLINK-1564","MEAN_MOTION_DDOT":"0.0000000000000","BSTAR":"-0.00002785300000","CLASSIFICATION_TYPE":"U","REF_FRAME":"TEME","ECCENTRICITY":"0.00014660","ELEMENT_SET_NO":"999","OBJECT_TYPE":"PAYLOAD","MEAN_MOTION":"15.06395949","NORAD_CAT_ID":"46058","TIME_SYSTEM":"UTC","RCS_SIZE":"LARGE","MEAN_ANOMALY":"284.1382","SEMIMAJOR_AXIS":"6925.361","RA_OF_ASC_NODE":"71.7220","OBJECT_ID":"2020-055AH","PERIAPSIS":"546.211","ARG_OF_PERICENTER":"75.9770","SITE":"AFETR","INCLINATION":"53.0557","EPHEMERIS_TYPE":"0","PERIOD":"95.592","COUNTRY_CODE":"US","FILE":"3679625","REV_AT_EPOCH":"12923","TLE_LINE2":"2 46058  53.0557  71.7220 0001466  75.9770 284.1382 15.06395949129237","MEAN_MOTION_DOT":"-0.00000696","MEAN_ELEMENT_THEORY":"SGP4","TLE_LINE1":"1 46058U 20055AH  22336.79768225 -.00000696  00000-0 -27853-4 0  9999","CENTER_NAME":"EARTH"},{"TLE_LINE1":"1 46059U 20055AJ  22336.87140918 -.00000313  00000-0 -20969-5 0  9990","MEAN_ELEMENT_THEORY":"SGP4","MEAN_MOTION_DOT":"-0.00000313","TLE_LINE2":"2 46059  53.0561  71.3970 0001547  71.7558 288.3599 15.06392682129203","REV_AT_EPOCH":"12920","FILE":"3679625","COUNTRY_CODE":"US","CENTER_NAME":"EARTH","ARG_OF_PERICENTER":"71.7558","PERIAPSIS":"546.165","OBJECT_ID":"2020-055AJ","RA_OF_ASC_NODE":"71.3970","PERIOD":"95.593","EPHEMERIS_TYPE":"0","INCLINATION":"53.0561","SITE":"AFETR","MEAN_MOTION":"15.06392682","OBJECT_TYPE":"PAYLOAD","ECCENTRICITY":"0.00015470","ELEMENT_SET_NO":"999","CLASSIFICATION_TYPE":"U","REF_FRAME":"TEME","SEMIMAJOR_AXIS":"6925.371","RCS_SIZE":"LARGE","MEAN_ANOMALY":"288.3599","TIME_SYSTEM":"UTC","NORAD_CAT_ID":"46059","OBJECT_NAME":"STARLINK-1570","MEAN_MOTION_DDOT":"0.0000000000000","EPOCH":"2022-12-02T20:54:49.753152","GP_ID":"219378681","APOAPSIS":"548.307","LAUNCH_DATE":"2020-08-07","DECAY_DATE":null,"BSTAR":"-0.00000209690000"},{"INCLINATION":"53.0553","SITE":"AFETR","PERIOD":"95.592","EPHEMERIS_TYPE":"0","RA_OF_ASC_NODE":"72.6010","OBJECT_ID":"2020-055AK","PERIAPSIS":"546.226","ARG_OF_PERICENTER":"71.3062","CENTER_NAME":"EARTH","COUNTRY_CODE":"US","FILE":"3679625","MEAN_ELEMENT_THEORY":"SGP4","MEAN_MOTION_DOT":"0.00000281","TLE_LINE2":"2 46060  53.0553  72.6010 0001434  71.3062 288.8082 15.06398222129170","REV_AT_EPOCH":"12917","TLE_LINE1":"1 46060U 20055AK  22336.60233340  .00000281  00000-0  37732-4 0  9992","BSTAR":"0.00003773200000","APOAPSIS":"548.212","LAUNCH_DATE":"2020-08-07","DECAY_DATE":null,"EPOCH":"2022-12-02T14:27:21.605760","GP_ID":"219379433","OBJECT_NAME":"STARLINK-1572","MEAN_MOTION_DDOT":"0.0000000000000","TIME_SYSTEM":"UTC","NORAD_CAT_ID":"46060","MEAN_ANOMALY":"288.8082","RCS_SIZE":"LARGE","SEMIMAJOR_AXIS":"6925.354","REF_FRAME":"TEME","CLASSIFICATION_TYPE":"U","ECCENTRICITY":"0.00014340","ELEMENT_SET_NO":"999","OBJECT_TYPE":"PAYLOAD","MEAN_MOTION":"15.06398222"},{"ARG_OF_PERICENTER":"64.9345","OBJECT_ID":"2020-055AL","PERIAPSIS":"546.126","RA_OF_ASC_NODE":"72.9411","EPHEMERIS_TYPE":"0","PERIOD":"95.592","INCLINATION":"53.0562","SITE":"AFETR","TLE_LINE1":"1 46061U 20055AL  22336.52861057  .00002578  00000-0  19195-3 0  9999","MEAN_MOTION_DOT":"0.00002578","TLE_LINE2":"2 46061  53.0562  72.9411 0001583  64.9345 295.1809 15.06397142128667","REV_AT_EPOCH":"12866","MEAN_ELEMENT_THEORY":"SGP4","FILE":"3679048","COUNTRY_CODE":"US","CENTER_NAME":"EARTH","OBJECT_NAME":"STARLINK-1573","MEAN_MOTION_DDOT":"0.0000000000000","GP_ID":"219322737","EPOCH":"2022-12-02T12:41:11.953248","DECAY_DATE":null,"APOAPSIS":"548.319","LAUNCH_DATE":"2020-08-07","BSTAR":"0.00019195000000","OBJECT_TYPE":"PAYLOAD","MEAN_MOTION":"15.06397142","ELEMENT_SET_NO":"999","ECCENTRICITY":"0.00015830","REF_FRAME":"TEME","CLASSIFICATION_TYPE":"U","SEMIMAJOR_AXIS":"6925.357","RCS_SIZE":"LARGE","MEAN_ANOMALY":"295.1809","NORAD_CAT_ID":"46061","TIME_SYSTEM":"UTC"},{"MEAN_MOTION_DOT":"-0.00001848","TLE_LINE2":"2 46062  53.0539  72.1705 0001785  52.4449 307.6702 15.06388028129183","REV_AT_EPOCH":"12918","MEAN_ELEMENT_THEORY":"SGP4","TLE_LINE1":"1 46062U 20055AM  22336.69448813 -.00001848  00000-0 -10520-3 0  9993","COUNTRY_CODE":"US","FILE":"3679625","CENTER_NAME":"EARTH","ARG_OF_PERICENTER":"52.4449","RA_OF_ASC_NODE":"72.1705","OBJECT_ID":"2020-055AM","PERIAPSIS":"546.014","EPHEMERIS_TYPE":"0","PERIOD":"95.593","INCLINATION":"53.0539","SITE":"AFETR","ELEMENT_SET_NO":"999","ECCENTRICITY":"0.00017850","MEAN_MOTION":"15.06388028","OBJECT_TYPE":"PAYLOAD","REF_FRAME":"TEME","CLASSIFICATION_TYPE":"U","SEMIMAJOR_AXIS":"6925.385","NORAD_CAT_ID":"46062","TIME_SYSTEM":"UTC","MEAN_ANOMALY":"307.6702","RCS_SIZE":"LARGE","MEAN_MOTION_DDOT":"0.0000000000000","OBJECT_NAME":"STARLINK-1574","DECAY_DATE":null,"APOAPSIS":"548.486","LAUNCH_DATE":"2020-08-07","GP_ID":"219377933","EPOCH":"2022-12-02T16:40:03.774432","BSTAR":"-0.00010520000000"},{"ECCENTRICITY":"0.00012990","ELEMENT_SET_NO":"999","OBJECT_TYPE":"PAYLOAD","MEAN_MOTION":"15.06400790","REF_FRAME":"TEME","CLASSIFICATION_TYPE":"U","SEMIMAJOR_AXIS":"6925.346","NORAD_CAT_ID":"46063","TIME_SYSTEM":"UTC","RCS_SIZE":"LARGE","MEAN_ANOMALY":"294.5446","MEAN_MOTION_DDOT":"0.0000000000000","OBJECT_NAME":"STARLINK-1577","DECAY_DATE":null,"LAUNCH_DATE":"2020-08-07","APOAPSIS":"548.111","GP_ID":"219378181","EPOCH":"2022-12-02T16:34:44.103072","BSTAR":"0.00002994000000","TLE_LINE2":"2 46063  53.0564  72.2020 0001299  65.5678 294.5446 15.06400790129216","REV_AT_EPOCH":"12921","MEAN_MOTION_DOT":"0.00000165","MEAN_ELEMENT_THEORY":"SGP4","TLE_LINE1":"1 46063U 20055AN  22336.69078823  .00000165  00000-0  29940-4 0  9990","COUNTRY_CODE":"US","FILE":"3679625","CENTER_NAME":"EARTH","ARG_OF_PERICENTER":"65.5678","RA_OF_ASC_NODE":"72.2020","OBJECT_ID":"2020-055AN","PERIAPSIS":"546.312","EPHEMERIS_TYPE":"0","PERIOD":"95.592","SITE":"AFETR","INCLINATION":"53.0564"},{"OBJECT_ID":"2020-055AP","PERIAPSIS":"546.276","RA_OF_ASC_NODE":"73.8416","ARG_OF_PERICENTER":"64.4057","INCLINATION":"53.0572","SITE":"AFETR","EPHEMERIS_TYPE":"0","PERIOD":"95.592","FILE":"3679245","COUNTRY_CODE":"US","TLE_LINE1":"1 46064U 20055AP  22336.32588119  .00002534  00000-0  18898-3 0  9996","TLE_LINE2":"2 46064  53.0572  73.8416 0001367  64.4057 295.7073 15.06396904129161","REV_AT_EPOCH":"12916","MEAN_MOTION_DOT":"0.00002534","MEAN_ELEMENT_THEORY":"SGP4","CENTER_NAME":"EARTH","GP_ID":"219347318","EPOCH":"2022-12-02T07:49:16.134816","DECAY_DATE":null,"LAUNCH_DATE":"2020-08-07","APOAPSIS":"548.170","MEAN_MOTION_DDOT":"0.0000000000000","OBJECT_NAME":"STARLINK-1583","BSTAR":"0.00018898000000","CLASSIFICATION_TYPE":"U","REF_FRAME":"TEME","OBJECT_TYPE":"PAYLOAD","MEAN_MOTION":"15.06396904","ECCENTRICITY":"0.00013670","ELEMENT_SET_NO":"999","RCS_SIZE":"LARGE","MEAN_ANOMALY":"295.7073","NORAD_CAT_ID":"46064","TIME_SYSTEM":"UTC","SEMIMAJOR_AXIS":"6925.358"},{"CENTER_NAME":"EARTH","MEAN_ELEMENT_THEORY":"SGP4","TLE_LINE2":"2 46065  53.0558  52.3921 0001461  64.9732 295.1408 15.06388525129479","REV_AT_EPOCH":"12947","MEAN_MOTION_DOT":"0.00000384","TLE_LINE1":"1 46065U 20055AQ  22336.65115427  .00000384  00000-0  44704-4 0  9998","COUNTRY_CODE":"US","FILE":"3679625","PERIOD":"95.593","EPHEMERIS_TYPE":"0","SITE":"AFETR","INCLINATION":"53.0558","ARG_OF_PERICENTER":"64.9732","RA_OF_ASC_NODE":"52.3921","OBJECT_ID":"2020-055AQ","PERIAPSIS":"546.237","SEMIMAJOR_AXIS":"6925.384","TIME_SYSTEM":"UTC","NORAD_CAT_ID":"46065","RCS_SIZE":"LARGE","MEAN_ANOMALY":"295.1408","ELEMENT_SET_NO":"999","ECCENTRICITY":"0.00014610","OBJECT_TYPE":"PAYLOAD","MEAN_MOTION":"15.06388525","CLASSIFICATION_TYPE":"U","REF_FRAME":"TEME","BSTAR":"0.00004470400000","MEAN_MOTION_DDOT":"0.0000000000000","OBJECT_NAME":"STARLINK-1515","APOAPSIS":"548.261","LAUNCH_DATE":"2020-08-07","DECAY_DATE":null,"EPOCH":"2022-12-02T15:37:39.728928","GP_ID":"219379684"}];
